0 BEIJING 1 (TSINGHUA)
1 28890U 05043A   13282.49304027  .00000216  00000-0  53411-4 0    82
2 28890 097.8400 129.6380 0016814 079.6072 280.7062 14.60528594423803
0 BEIJING 1 (TSINGHUA)
1 28890U 05043A   13282.83558644  .00000175  00000-0  44967-4 0    97
2 28890 097.8399 129.9624 0016812 078.5997 281.7094 14.60528667423858
0 BEIJING 1 (TSINGHUA)
1 28890U 05043A   13283.17813324  .00000185  00000-0  47031-4 0   102
2 28890 097.8400 130.2869 0016803 077.3939 282.9136 14.60528839423907
0 BEIJING 1 (TSINGHUA)
1 28890U 05043A   13283.31515206  .00000202  00000-0  50426-4 0   119
2 28890 097.8403 130.4168 0016801 077.0215 283.2854 14.60528841423922
0 BEIJING 1 (TSINGHUA)
1 28890U 05043A   13283.65769893  .00000177  00000-0  45327-4 0   114
2 28890 097.8402 130.7411 0016799 075.9909 284.3153 14.60528922423977
0 BEIJING 1 (TSINGHUA)
1 28890U 05043A   13283.86322713  .00000176  00000-0  45141-4 0   127
2 28890 097.8402 130.9357 0016803 075.3493 284.9570 14.60529015424004
0 BEIJING 1 (TSINGHUA)
1 28890U 05043A   13284.13726442  .00000169  00000-0  43757-4 0   139
2 28890 097.8404 131.1954 0016807 074.5207 285.7838 14.60529053424042
0 BEIJING 1 (TSINGHUA)
1 28890U 05043A   13284.47981143  .00000200  00000-0  50010-4 0   144
2 28890 097.8407 131.5198 0016782 073.6168 286.6889 14.60529344424091
0 BEIJING 1 (TSINGHUA)
1 28890U 05043A   13285.50745108  .00000191  00000-0  48184-4 0   179
2 28890 097.8408 132.4931 0016734 070.7349 289.5673 14.60529794424242
0 BEIJING 1 (TSINGHUA)
1 28890U 05043A   13285.84999726  .00000189  00000-0  47903-4 0   189
2 28890 097.8409 132.8174 0016743 069.7247 290.5752 14.60530004424292
0 BEIJING 1 (TSINGHUA)
1 28890U 05043A   13286.19254354  .00000112  00000-0  31908-4 0   194
2 28890 097.8412 133.1420 0016738 068.6699 291.6258 14.60529692424347
0 BEIJING 1 (TSINGHUA)
1 28890U 05043A   13286.53509056  .00000215  00000-0  53147-4 0   209
2 28890 097.8410 133.4663 0016702 067.6757 292.6242 14.60530429424391
0 BEIJING 1 (TSINGHUA)
1 28890U 05043A   13286.87763640  .00000215  00000-0  53087-4 0   211
2 28890 097.8411 133.7908 0016717 066.7050 293.5911 14.60530600424449
0 BEIJING 1 (TSINGHUA)
1 28890U 05043A   13287.22018236  .00000190  00000-0  48109-4 0   227
2 28890 097.8412 134.1151 0016731 065.6596 294.6316 14.60530522424493
0 BEIJING 1 (TSINGHUA)
1 28890U 05043A   13287.56272927  .00000206  00000-0  51293-4 0   230
2 28890 097.8409 134.4393 0016757 064.5566 295.7369 14.60530822424542
0 BEIJING 1 (TSINGHUA)
1 28890U 05043A   13287.83676616  .00000202  00000-0  50608-4 0   249
2 28890 097.8408 134.6989 0016747 063.7563 296.5364 14.60531035424586
0 BEIJING 1 (TSINGHUA)
1 28890U 05043A   13288.17931203  .00000145  00000-0  38817-4 0   258
2 28890 097.8407 135.0233 0016748 063.0631 297.2259 14.60530850424633
0 BEIJING 1 (TSINGHUA)
1 28890U 05043A   13288.52185869  .00000149  00000-0  39679-4 0   268
2 28890 097.8405 135.3474 0016674 062.1400 298.1505 14.60531033424686
0 BEIJING 1 (TSINGHUA)
1 28890U 05043A   13288.86440434  .00000186  00000-0  47159-4 0   271
2 28890 097.8404 135.6718 0016672 061.0270 299.2601 14.60531398424739
0 BEIJING 1 (TSINGHUA)
1 28890U 05043A   13289.20695021  .00000209  00000-0  51934-4 0   287
2 28890 097.8402 135.9958 0016677 060.0284 300.2558 14.60531593424781
0 BEIJING 1 (TSINGHUA)
1 28890U 05043A   13289.54949629  .00000298  00000-0  70156-4 0   296
2 28890 097.8399 136.3202 0016619 059.0384 301.2477 14.60532358424835
0 BEIJING 1 (TSINGHUA)
1 28890U 05043A   13289.82353225  .00000301  00000-0  70890-4 0   300
2 28890 097.8398 136.5797 0016584 058.2921 301.9896 14.60532593424871
0 BEIJING 1 (TSINGHUA)
1 28890U 05043A   13290.16607788  .00000267  00000-0  63844-4 0   318
2 28890 097.8399 136.9042 0016587 057.3238 302.9541 14.60532545424924
0 BEIJING 1 (TSINGHUA)
1 28890U 05043A   13290.37160571  .00000292  00000-0  68986-4 0   326
2 28890 097.8397 137.0986 0016597 056.6148 303.6634 14.60532712424954
0 BEIJING 1 (TSINGHUA)
1 28890U 05043A   13290.71415144  .00000256  00000-0  61519-4 0   339
2 28890 097.8394 137.4234 0016557 055.7150 304.5618 14.60532816425004
0 BEIJING 1 (TSINGHUA)
1 28890U 05043A   13290.85116969  .00000250  00000-0  60328-4 0   349
2 28890 097.8394 137.5529 0016587 055.2123 305.0636 14.60532915425028
0 BEIJING 1 (TSINGHUA)
1 28890U 05043A   13291.19371513  .00000306  00000-0  71881-4 0   354
2 28890 097.8394 137.8773 0016564 054.1771 306.0964 14.60533354425072
0 BEIJING 1 (TSINGHUA)
1 28890U 05043A   13291.53626077  .00000346  00000-0  80041-4 0   363
2 28890 097.8395 138.2021 0016543 053.1280 307.1458 14.60533881425126
0 BEIJING 1 (TSINGHUA)
1 28890U 05043A   13291.87880579  .00000308  00000-0  72216-4 0   373
2 28890 097.8398 138.5260 0016564 052.0463 308.2223 14.60533929425171
0 BEIJING 1 (TSINGHUA)
1 28890U 05043A   13292.22135127  .00000291  00000-0  68807-4 0   388
2 28890 097.8397 138.8504 0016552 050.8991 309.3662 14.60533963425226
0 BEIJING 1 (TSINGHUA)
1 28890U 05043A   13292.56389695  .00000270  00000-0  64422-4 0   393
2 28890 097.8397 139.1748 0016513 049.9250 310.3400 14.60534107425272
0 BEIJING 1 (TSINGHUA)
1 28890U 05043A   13292.83793312  .00000246  00000-0  59608-4 0   403
2 28890 097.8395 139.4342 0016528 049.0561 311.2070 14.60534253425315
0 BEIJING 1 (TSINGHUA)
1 28890U 05043A   13293.18047850  .00000204  00000-0  50875-4 0   413
2 28890 097.8395 139.7586 0016499 047.8438 312.4160 14.60534194425366
0 BEIJING 1 (TSINGHUA)
1 28890U 05043A   13293.52302410  .00000218  00000-0  53790-4 0   422
2 28890 097.8395 140.0830 0016474 046.8055 313.4535 14.60534391425412
0 BEIJING 1 (TSINGHUA)
1 28890U 05043A   13293.86556902  .00000220  00000-0  54206-4 0   433
2 28890 097.8393 140.4075 0016465 045.7405 314.5147 14.60534605425466
0 BEIJING 1 (TSINGHUA)
1 28890U 05043A   13294.20811403  .00000167  00000-0  43413-4 0   441
2 28890 097.8391 140.7319 0016429 044.8901 315.3604 14.60534388425510
0 BEIJING 1 (TSINGHUA)
1 28890U 05043A   13294.55065955  .00000228  00000-0  55808-4 0   452
2 28890 097.8389 141.0559 0016432 043.7706 316.4814 14.60535012425567
0 BEIJING 1 (TSINGHUA)
1 28890U 05043A   13294.82469524  .00000210  00000-0  52240-4 0   461
2 28890 097.8385 141.3156 0016417 042.9386 317.3101 14.60535167425602
0 BEIJING 1 (TSINGHUA)
1 28890U 05043A   13295.16723998  .00000177  00000-0  45284-4 0   470
2 28890 097.8383 141.6396 0016403 041.9435 318.2999 14.60535094425657
0 BEIJING 1 (TSINGHUA)
1 28890U 05043A   13295.57829442  .00000277  00000-0  65983-4 0   486
2 28890 097.8382 142.0286 0016352 040.7585 319.4859 14.60535759425718
0 BEIJING 1 (TSINGHUA)
1 28890U 05043A   13295.85232979  .00000320  00000-0  74718-4 0   496
2 28890 097.8383 142.2879 0016362 039.8584 320.3817 14.60536145425757
0 BEIJING 1 (TSINGHUA)
1 28890U 05043A   13296.19487426  .00000221  00000-0  54488-4 0   507
2 28890 097.8385 142.6123 0016351 038.9998 321.2337 14.60535786425805
